NORAD_CAT_ID,OBJECT_NAME,OBJECT_TYPE,EPOCH,MEAN_MOTION,ECCENTRICITY,INCLINATION,RA_OF_ASC_NODE,ARG_OF_PERICENTER,MEAN_ANOMALY,BSTAR,MEAN_MOTION_DOT,MEAN_MOTION_DDOT,TLE_LINE0,TLE_LINE1,TLE_LINE2,SEMIMAJOR_AXIS,PERIOD,APOGEE,PERIGEE,DECAYED
53415.0,STARLINK-4479,PAYLOAD,2024-08-14 05:52:09,15.08809192,0.0001612,53.2154,163.9281,95.7018,264.4158,0.00043491,6.635e-05,0.0,0 STARLINK-4479,1 53415U 22097AD  24227.24455641  .00006635  00000-0  43491-3 0  9990,2 53415  53.2154 163.9281 0001612  95.7018 264.4158 15.08809192112209,6917.975,95.44,540.955,538.724,0.0
53415.0,STARLINK-4479,PAYLOAD,2024-08-15 02:32:09,15.08880006,0.0001367,53.2149,160.0641,92.8194,267.2954,0.0019097,0.00030269,0.0,0 STARLINK-4479,1 53415U 22097AD  24228.10567116  .00030269  00000-0  19097-2 0  9991,2 53415  53.2149 160.0641 0001367  92.8194 267.2954 15.08880006111871,6917.758,95.435,540.569,538.677,0.0
53415.0,STARLINK-4479,PAYLOAD,2024-08-15 12:04:28,15.08882243,0.0001507,53.2149,158.2775,74.4219,285.6939,0.0014217,0.00022437,0.0,0 STARLINK-4479,1 53415U 22097AD  24228.50310339  .00022437  00000-0  14217-2 0  9995,2 53415  53.2149 158.2775 0001507  74.4219 285.6939 15.08882243112398,6917.751,95.435,540.659,538.574,0.0
53415.0,STARLINK-4479,PAYLOAD,2024-08-16 02:22:55,15.08872298,0.0001267,53.215,155.6032,84.3708,275.7428,0.0017934,0.00028395,0.0,0 STARLINK-4479,1 53415U 22097AD  24229.09925627  .00028395  00000-0  17934-2 0  9990,2 53415  53.2150 155.6032 0001267  84.3708 275.7428 15.08872298112025,6917.782,95.436,540.523,538.77,0.0
53415.0,STARLINK-4479,PAYLOAD,2024-08-17 05:24:28,15.08865575,0.0001412,53.2141,150.5483,96.1672,263.9481,0.00081522,0.00012719,0.0,0 STARLINK-4479,1 53415U 22097AD  24230.22532928  .00012719  00000-0  81522-3 0  9993,2 53415  53.2141 150.5483 0001412  96.1672 263.9481 15.08865575112198,6917.802,95.436,540.644,538.69,0.0
53415.0,STARLINK-4479,PAYLOAD,2024-08-17 18:07:34,15.08839861,0.0001455,53.214,148.1636,95.9721,264.1437,0.00087119,0.00013604,0.0,0 STARLINK-4479,1 53415U 22097AD  24230.75525472  .00013604  00000-0  87119-3 0  9999,2 53415  53.2140 148.1636 0001455  95.9721 264.1437 15.08839861112271,6917.881,95.438,540.752,538.739,0.0
53415.0,STARLINK-4479,PAYLOAD,2024-08-18 02:04:29,15.08855572,0.0001302,53.2151,146.6792,109.052,251.0613,0.00097804,0.00015318,0.0,0 STARLINK-4479,1 53415U 22097AD  24231.08645136  .00015318  00000-0  97804-3 0  9992,2 53415  53.2151 146.6792 0001302 109.0520 251.0613 15.08855572112788,6917.833,95.437,540.598,538.797,0.0
53415.0,STARLINK-4479,PAYLOAD,2024-08-18 03:39:52,15.08851275,0.0001397,53.2153,146.3833,93.159,266.9562,0.0014022,0.00022105,0.0,0 STARLINK-4479,1 53415U 22097AD  24231.15269341  .00022105  00000-0  14022-2 0  9992,2 53415  53.2153 146.3833 0001397  93.1590 266.9562 15.08851275112792,6917.846,95.437,540.677,538.745,0.0
53415.0,STARLINK-4479,PAYLOAD,2024-08-19 03:30:39,15.08861097,0.0001433,53.2157,141.9221,97.1064,263.0091,0.00077495,0.00012074,0.0,0 STARLINK-4479,1 53415U 22097AD  24232.14628557  .00012074  00000-0  77495-3 0  9998,2 53415  53.2157 141.9221 0001433  97.1064 263.0091 15.08861097112483,6917.816,95.436,540.672,538.69,0.0
53415.0,STARLINK-4479,PAYLOAD,2024-08-19 11:27:35,15.08843062,0.0001283,53.2157,140.4365,102.6295,257.484,0.00019361,2.795e-05,0.0,0 STARLINK-4479,1 53415U 22097AD  24232.47748974  .00002795  00000-0  19361-3 0  9997,2 53415  53.2157 140.4365 0001283 102.6295 257.4840 15.08843062112534,6917.871,95.437,540.624,538.848,0.0
53415.0,STARLINK-4479,PAYLOAD,2024-08-20 03:21:26,15.08838465,0.0001578,53.2163,137.4598,110.9844,249.1317,-4.4733e-06,-3.59e-06,0.0,0 STARLINK-4479,1 53415U 22097AD  24233.13989313 -.00000359  00000-0 -44733-5 0  9994,2 53415  53.2163 137.4598 0001578 110.9844 249.1317 15.08838465112633,6917.885,95.438,540.842,538.658,0.0
53415.0,STARLINK-4479,PAYLOAD,2024-08-21 03:12:13,15.0885054,0.0001547,53.2154,132.999,122.2908,237.8234,0.00025704,3.806e-05,0.0,0 STARLINK-4479,1 53415U 22097AD  24234.13348934  .00003806  00000-0  25704-3 0  9996,2 53415  53.2154 132.9990 0001547 122.2908 237.8234 15.08850540112788,6917.848,95.437,540.783,538.643,0.0
53415.0,STARLINK-4479,PAYLOAD,2024-08-21 20:41:28,15.08838033,0.0001751,53.2153,129.7241,123.9193,236.1966,0.00021167,3.082e-05,0.0,0 STARLINK-4479,1 53415U 22097AD  24234.86213818  .00003082  00000-0  21167-3 0  9993,2 53415  53.2153 129.7241 0001751 123.9193 236.1966 15.08838033113352,6917.886,95.438,540.963,538.54,0.0
53415.0,STARLINK-4479,PAYLOAD,2024-08-21 22:16:51,15.08839213,0.0001667,53.2156,129.4269,121.5942,238.5213,0.00023414,3.44e-05,0.0,0 STARLINK-4479,1 53415U 22097AD  24234.92837837  .00003440  00000-0  23414-3 0  9998,2 53415  53.2156 129.4269 0001667 121.5942 238.5213 15.08839213112906,6917.883,95.438,540.901,538.595,0.0
